GALAXY 16 (G-16)        
1 29236U 06023A   26155.04644678 -.00000115  00000+0  00000+0 0  9997
2 29236   0.0274 206.5568 0003172 236.7234  86.9435  1.00273894 72849
EUTELSAT 33F            
1 29270U 06032A   26155.14389455  .00000167  00000+0  00000+0 0  9991
2 29270   1.6277  82.3887 0003675 345.9163 269.1817  1.00273129 47171
JCSAT-3A                
1 29272U 06033A   26155.02004771 -.00000332  00000+0  00000+0 0  9991
2 29272   0.0224 294.8408 0002306 143.5325 309.3146  1.00274317 47609
KOREASAT 5 (MUGUNGWHA 5)
1 29349U 06034A   26155.01433639 -.00000346  00000+0  00000+0 0  9990
2 29349   1.7511  83.1445 0001746  30.2848 257.2441  1.00269861 41184
DIRECTV 9S              
1 29494U 06043A   26155.18794779 -.00000102  00000+0  00000+0 0  9994
2 29494   2.3871  81.0569 0005207   3.2664 134.7901  1.00272021 51258
OPTUS D1                
1 29495U 06043B   26154.88222921 -.00000172  00000+0  00000+0 0  9993
2 29495   3.0006  79.8181 0003871 348.9604 293.1559  1.00272886 71980
BADR-4                  
1 29526U 06051A   26153.87544968  .00000166  00000+0  00000+0 0  9995
2 29526   1.9664  81.2933 0007686 158.1112 354.3784  1.00437401 51127
WILDBLUE-1              
1 29643U 06054A   26155.11530347 -.00000038  00000+0  00000+0 0  9992
2 29643   2.7692  80.6447 0001781   3.2545  98.9691  1.00271661 53663
SKYNET 5A               
1 30794U 07007B   26155.20113999 -.00000260  00000+0  00000+0 0  9997
2 30794   5.2689  73.8958 0004058   7.4291 338.9369  1.00269160 70569
ANIK F3                 
1 31102U 07009A   26155.11383014  .00000011  00000+0  00000+0 0  9993
2 31102   1.1634  84.0033 0002859 348.0179 102.8019  1.00270842 46430
ASTRA 1L                
1 31306U 07016A   26155.13245448 -.00000172  00000+0  00000+0 0  9996
2 31306   1.2879  81.6838 0005486   1.2540 192.8433  1.00271527 44857
GALAXY 17 (G-17)        
1 31307U 07016B   26155.12051499 -.00000195  00000+0  00000+0 0  9992
2 31307   2.9392  80.0641 0005002  12.4020 118.4898  1.00270780 69678
INTELSAT 11 (IS-11)     
1 32253U 07044B   26155.10204343 -.00000125  00000+0  00000+0 0  9993
2 32253   3.5313  78.8269 0001610  73.4592 320.2860  0.99053422 68324
WGS F1 (USA 195)        
1 32258U 07046A   26155.12885622 -.00000255  00000+0  00000+0 0  9991
2 32258   0.0515  94.1457 0000557 344.4222 177.9178  1.00271346 52204
SKYNET 5B               
1 32294U 07056B   26155.12197520  .00000151  00000+0  00000+0 0  9999
2 32294   5.2205  73.6564 0003750 355.4872 252.4278  1.00273754 68065
ASTRA 4A                
1 32299U 07057A   26155.13826117  .00000045  00000+0  00000+0 0  9999
2 32299   0.0163  15.5610 0002596  62.1739 229.4330  1.00272546 51517
HORIZONS-2              
1 32388U 07063B   26155.17669625 -.00000242  00000+0  00000+0 0  9998
2 32388   2.5685  80.7829 0004229 351.2890 170.3820  1.00273999 67689
THURAYA-3               
1 32404U 08001A   26155.15481458 -.00000155  00000+0  00000+0 0  9997
2 32404   5.9673  35.7798 0000859 145.6628 215.2674  1.00010320 67353
THOR 5                  
1 32487U 08006A   26155.13713450  .00000000  00000+0  00000+0 0  9999
2 32487   0.0122 327.6536 0002811 117.4751 216.0714  1.00270038 67185
AMC-14                  
1 32708U 08011A   26147.73428900 -.00000002  00000+0  00000+0 0  9994
2 32708  23.9628  20.7255 0049976  92.2727  95.7206  1.00350219 67965
DIRECTV 11              
1 32729U 08013A   26154.97511618 -.00000114  00000+0  00000+0 0  9996
2 32729   0.0170 148.4619 0000515 243.0214 112.8090  1.00271261 45463
ICO G1                  
1 32763U 08016A   26155.18794779 -.00000162  00000+0  00000+0 0  9995
2 32763   5.5331  36.1851 0002237  24.5876 166.6572  1.00271240 66417
VINASAT-1               
1 32767U 08018A   26155.17683779 -.00000316  00000+0  00000+0 0  9998
2 32767   0.0172 307.5188 0001454 139.9857   0.7266  1.00268694 66464
STAR ONE C2             
1 32768U 08018B   26155.17128294 -.00000265  00000+0  00000+0 0  9998
2 32768   1.2077  82.5803 0002972 357.0643 169.6466  1.00270253 66526
AMOS-3                  
1 32794U 08022A   26155.14311454  .00000168  00000+0  00000+0 0  9992
2 32794   0.4214  86.4460 0001847  55.6328 191.4824  1.00469953 82203
GALAXY 18 (G-18)        
1 32951U 08024A   26155.18308764  .00000037  00000+0  00000+0 0  9998
2 32951   0.0151  14.2058 0003307  68.1404 113.1911  1.00271630 45720
ZHONGXING-9             
1 33051U 08028A   26155.18566792 -.00000237  00000+0  00000+0 0  9994
2 33051   0.7360  85.5257 0004900 328.2263 358.1036  1.00270177 65902
SKYNET 5C               
1 33055U 08030A   26155.13375449 -.00000129  00000+0  00000+0 0  9993
2 33055   3.7554  77.1939 0004291   5.0441 200.7260  1.00271351 65826
TURKSAT 3A              
1 33056U 08030B   26155.14562787  .00000158  00000+0  00000+0 0  9999
2 33056   0.0664  83.8256 0005486 340.5006 282.6779  1.00271326 52222
INTELSAT 25 (IS-25)     
1 33153U 08034A   26155.10169676 -.00000147  00000+0  00000+0 0  9996
2 33153   2.6745  80.4584 0002222  56.5708 332.2960  0.99026875 65562
ECHOSTAR 11             
1 33207U 08035A   26155.11556347 -.00000046  00000+0  00000+0 0  9991
2 33207   0.9710  84.3282 0002684 333.7067 126.3391  1.00271928 51089
SUPERBIRD-C2            
1 33274U 08038A   26155.16426131 -.00000295  00000+0  00000+0 0  9996
2 33274   2.3272  81.4221 0006162  20.8450 345.4684  1.00270296105602
